1 35931U 09051A   25230.16450411  .00000067  00000-0  71812-4 0  9996
2 35931  98.2231 242.5519 0016288  17.9835 342.1904 13.99595008836946
